start=new Date('2022-12-15T00:00:00.000Z').valueOf();
sats=[{"BSTAR":"-0.00006950100000","MEAN_MOTION":"15.06388023","ARG_OF_PERICENTER":"54.9181","REV_AT_EPOCH":"9860","LAUNCH_DATE":"2021-03-11","OBJECT_ID":"2021-018B","MEAN_ANOMALY":"305.2003","OBJECT_NAME":"STARLINK-2314","SEMIMAJOR_AXIS":"6925.385","DECAY_DATE":null,"COUNTRY_CODE":"US","GP_ID":"220371877","INCLINATION":"53.0558","PERIAPSIS":"545.814","NORAD_CAT_ID":"47788","PERIOD":"95.593","MEAN_MOTION_DDOT":"0.0000000000000","OBJECT_TYPE":"PAYLOAD","SITE":"AFETR","CENTER_NAME":"EARTH","RA_OF_ASC_NODE":"128.4296","MEAN_MOTION_DOT":"-0.00001316","RCS_SIZE":"LARGE","ECCENTRICITY":"0.00020740","TIME_SYSTEM":"UTC","REF_FRAME":"TEME","CLASSIFICATION_TYPE":"U","EPHEMERIS_TYPE":"0","EPOCH":"2022-12-14T16:06:16.609248","APOAPSIS":"548.687","MEAN_ELEMENT_THEORY":"SGP4","TLE_LINE1":"1 47788U 21018B   22348.67102557 -.00001316  00000-0 -69501-4 0  9996","TLE_LINE2":"2 47788  53.0558 128.4296 0002074  54.9181 305.2003 15.06388023 98607","FILE":"3699023","ELEMENT_SET_NO":"999"},{"SEMIMAJOR_AXIS":"6925.355","COUNTRY_CODE":"US","DECAY_DATE":null,"GP_ID":"220413697","INCLINATION":"53.0542","PERIAPSIS":"546.232","BSTAR":"0.00006429500000","MEAN_MOTION":"15.06397939","ARG_OF_PERICENTER":"67.5107","REV_AT_EPOCH":"9857","LAUNCH_DATE":"2021-03-11","OBJECT_ID":"2021-018C","OBJECT_NAME":"STARLINK-2315","MEAN_ANOMALY":"292.6032","OBJECT_TYPE":"PAYLOAD","SITE":"AFETR","CENTER_NAME":"EARTH","RA_OF_ASC_NODE":"132.0118","NORAD_CAT_ID":"47789","PERIOD":"95.592","MEAN_MOTION_DDOT":"0.0000000000000","EPHEMERIS_TYPE":"0","EPOCH":"2022-12-14T23:39:24.981984","MEAN_MOTION_DOT":"0.00000676","RCS_SIZE":"LARGE","ECCENTRICITY":"0.00014270","TIME_SYSTEM":"UTC","REF_FRAME":"TEME","CLASSIFICATION_TYPE":"U","ELEMENT_SET_NO":"999","MEAN_ELEMENT_THEORY":"SGP4","APOAPSIS":"548.208","TLE_LINE1":"1 47789U 21018C   22348.98570581  .00000676  00000-0  64295-4 0  9998","FILE":"3699689","TLE_LINE2":"2 47789  53.0542 132.0118 0001427  67.5107 292.6032 15.06397939 98577"},{"PERIOD":"95.592","MEAN_MOTION_DDOT":"0.0000000000000","NORAD_CAT_ID":"47790","CENTER_NAME":"EARTH","RA_OF_ASC_NODE":"123.0130","SITE":"AFETR","OBJECT_TYPE":"PAYLOAD","REV_AT_EPOCH":"9903","MEAN_MOTION":"15.06399200","ARG_OF_PERICENTER":"56.6017","BSTAR":"0.00007374200000","OBJECT_NAME":"STARLINK-2319","MEAN_ANOMALY":"303.5115","OBJECT_ID":"2021-018D","LAUNCH_DATE":"2021-03-11","GP_ID":"220407452","COUNTRY_CODE":"US","DECAY_DATE":null,"SEMIMAJOR_AXIS":"6925.351","INCLINATION":"53.0547","PERIAPSIS":"546.178","TLE_LINE1":"1 47790U 21018D   22348.76177782  .00000817  00000-0  73742-4 0  9996","APOAPSIS":"548.254","MEAN_ELEMENT_THEORY":"SGP4","TLE_LINE2":"2 47790  53.0547 123.0130 0001499  56.6017 303.5115 15.06399200 99035","FILE":"3699647","ELEMENT_SET_NO":"999","ECCENTRICITY":"0.00014990","RCS_SIZE":"LARGE","MEAN_MOTION_DOT":"0.00000817","CLASSIFICATION_TYPE":"U","REF_FRAME":"TEME","TIME_SYSTEM":"UTC","EPOCH":"2022-12-14T18:16:57.603648","EPHEMERIS_TYPE":"0"},{"OBJECT_TYPE":"PAYLOAD","RA_OF_ASC_NODE":"153.2086","CENTER_NAME":"EARTH","SITE":"AFETR","MEAN_MOTION_DDOT":"0.0000000000000","PERIOD":"95.592","NORAD_CAT_ID":"47791","DECAY_DATE":null,"COUNTRY_CODE":"US","SEMIMAJOR_AXIS":"6925.360","GP_ID":"220408203","INCLINATION":"53.0544","PERIAPSIS":"546.051","ARG_OF_PERICENTER":"70.9280","MEAN_MOTION":"15.06396158","BSTAR":"0.00001365100000","REV_AT_EPOCH":"9860","LAUNCH_DATE":"2021-03-11","OBJECT_ID":"2021-018E","MEAN_ANOMALY":"289.1892","OBJECT_NAME":"STARLINK-2322","ELEMENT_SET_NO":"999","MEAN_ELEMENT_THEORY":"SGP4","APOAPSIS":"548.400","TLE_LINE1":"1 47791U 21018E   22348.71479340 -.00000078  00000-0  13651-4 0  9990","TLE_LINE2":"2 47791  53.0544 153.2086 0001696  70.9280 289.1892 15.06396158 98600","FILE":"3699647","EPOCH":"2022-12-14T17:09:18.149760","EPHEMERIS_TYPE":"0","RCS_SIZE":"LARGE","MEAN_MOTION_DOT":"-0.00000078","ECCENTRICITY":"0.00016960","TIME_SYSTEM":"UTC","CLASSIFICATION_TYPE":"U","REF_FRAME":"TEME"},{"ELEMENT_SET_NO":"999","APOAPSIS":"548.501","MEAN_ELEMENT_THEORY":"SGP4","TLE_LINE1":"1 47792U 21018F   22348.79405196  .00000441  00000-0  48532-4 0  9996","FILE":"3699647","TLE_LINE2":"2 47792  53.0532 132.8733 0001835  43.3511 316.7622 15.06394509 98893","EPHEMERIS_TYPE":"0","EPOCH":"2022-12-14T19:03:26.089344","MEAN_MOTION_DOT":"0.00000441","RCS_SIZE":"LARGE","ECCENTRICITY":"0.00018350","TIME_SYSTEM":"UTC","REF_FRAME":"TEME","CLASSIFICATION_TYPE":"U","OBJECT_TYPE":"PAYLOAD","SITE":"AFETR","CENTER_NAME":"EARTH","RA_OF_ASC_NODE":"132.8733","NORAD_CAT_ID":"47792","MEAN_MOTION_DDOT":"0.0000000000000","PERIOD":"95.592","SEMIMAJOR_AXIS":"6925.365","DECAY_DATE":null,"COUNTRY_CODE":"US","GP_ID":"220408949","PERIAPSIS":"545.960","INCLINATION":"53.0532","BSTAR":"0.00004853200000","MEAN_MOTION":"15.06394509","ARG_OF_PERICENTER":"43.3511","REV_AT_EPOCH":"9889","LAUNCH_DATE":"2021-03-11","OBJECT_ID":"2021-018F","MEAN_ANOMALY":"316.7622","OBJECT_NAME":"STARLINK-2334"},{"FILE":"3699647","TLE_LINE2":"2 47793  53.0529 132.8061 0001614  61.3434 298.7717 15.06406776 98886","MEAN_ELEMENT_THEORY":"SGP4","APOAPSIS":"548.311","TLE_LINE1":"1 47793U 21018G   22348.80877313 -.00000773  00000-0 -32985-4 0  9998","ELEMENT_SET_NO":"999","TIME_SYSTEM":"UTC","CLASSIFICATION_TYPE":"U","REF_FRAME":"TEME","RCS_SIZE":"LARGE","MEAN_MOTION_DOT":"-0.00000773","ECCENTRICITY":"0.00016140","EPOCH":"2022-12-14T19:24:37.998432","EPHEMERIS_TYPE":"0","PERIOD":"95.592","MEAN_MOTION_DDOT":"0.0000000000000","NORAD_CAT_ID":"47793","OBJECT_TYPE":"PAYLOAD","CENTER_NAME":"EARTH","RA_OF_ASC_NODE":"132.8061","SITE":"AFETR","OBJECT_ID":"2021-018G","LAUNCH_DATE":"2021-03-11","MEAN_ANOMALY":"298.7717","OBJECT_NAME":"STARLINK-2338","ARG_OF_PERICENTER":"61.3434","MEAN_MOTION":"15.06406776","BSTAR":"-0.00003298500000","REV_AT_EPOCH":"9888","INCLINATION":"53.0529","PERIAPSIS":"546.075","COUNTRY_CODE":"US","DECAY_DATE":null,"SEMIMAJOR_AXIS":"6925.328","GP_ID":"220407707"},{"PERIOD":"95.592","MEAN_MOTION_DDOT":"0.0000000000000","NORAD_CAT_ID":"47794","OBJECT_TYPE":"PAYLOAD","RA_OF_ASC_NODE":"132.7890","CENTER_NAME":"EARTH","SITE":"AFETR","LAUNCH_DATE":"2021-03-11","OBJECT_ID":"2021-018H","MEAN_ANOMALY":"300.9449","OBJECT_NAME":"STARLINK-2341","MEAN_MOTION":"15.06399100","ARG_OF_PERICENTER":"59.1689","BSTAR":"-0.00023747000000","REV_AT_EPOCH":"9889","INCLINATION":"53.0513","PERIAPSIS":"546.166","DECAY_DATE":null,"COUNTRY_CODE":"US","SEMIMAJOR_AXIS":"6925.351","GP_ID":"220407953","TLE_LINE2":"2 47794  53.0513 132.7890 0001516  59.1689 300.9449 15.06399100 98898","FILE":"3699647","APOAPSIS":"548.266","MEAN_ELEMENT_THEORY":"SGP4","TLE_LINE1":"1 47794U 21018H   22348.81246565 -.00003817  00000-0 -23747-3 0  9996","ELEMENT_SET_NO":"999","TIME_SYSTEM":"UTC","CLASSIFICATION_TYPE":"U","REF_FRAME":"TEME","RCS_SIZE":"LARGE","MEAN_MOTION_DOT":"-0.00003817","ECCENTRICITY":"0.00015160","EPOCH":"2022-12-14T19:29:57.032160","EPHEMERIS_TYPE":"0"},{"FILE":"3699647","TLE_LINE2":"2 47795  53.0526 133.4352 0001767  88.1769 271.9423 15.06400125 98926","APOAPSIS":"548.437","MEAN_ELEMENT_THEORY":"SGP4","TLE_LINE1":"1 47795U 21018J   22348.66871093  .00001245  00000-0  10244-3 0  9999","ELEMENT_SET_NO":"999","TIME_SYSTEM":"UTC","CLASSIFICATION_TYPE":"U","REF_FRAME":"TEME","RCS_SIZE":"LARGE","MEAN_MOTION_DOT":"0.00001245","ECCENTRICITY":"0.00017670","EPOCH":"2022-12-14T16:02:56.624352","EPHEMERIS_TYPE":"0","PERIOD":"95.592","MEAN_MOTION_DDOT":"0.0000000000000","NORAD_CAT_ID":"47795","OBJECT_TYPE":"PAYLOAD","RA_OF_ASC_NODE":"133.4352","CENTER_NAME":"EARTH","SITE":"AFETR","OBJECT_ID":"2021-018J","LAUNCH_DATE":"2021-03-11","OBJECT_NAME":"STARLINK-2347","MEAN_ANOMALY":"271.9423","MEAN_MOTION":"15.06400125","ARG_OF_PERICENTER":"88.1769","BSTAR":"0.00010244000000","REV_AT_EPOCH":"9892","INCLINATION":"53.0526","PERIAPSIS":"545.989","DECAY_DATE":null,"COUNTRY_CODE":"US","SEMIMAJOR_AXIS":"6925.348","GP_ID":"220408704"},{"COUNTRY_CODE":"US","DECAY_DATE":null,"SEMIMAJOR_AXIS":"6925.346","GP_ID":"220370371","PERIAPSIS":"546.323","INCLINATION":"53.0546","MEAN_MOTION":"15.06400773","ARG_OF_PERICENTER":"53.3072","BSTAR":"-0.00001438200000","REV_AT_EPOCH":"9852","OBJECT_ID":"2021-018K","LAUNCH_DATE":"2021-03-11","MEAN_ANOMALY":"306.8035","OBJECT_NAME":"STARLINK-2373","OBJECT_TYPE":"PAYLOAD","CENTER_NAME":"EARTH","RA_OF_ASC_NODE":"133.3672","SITE":"AFETR","PERIOD":"95.592","MEAN_MOTION_DDOT":"0.0000000000000","NORAD_CAT_ID":"47796","EPOCH":"2022-12-14T16:24:10.431648","EPHEMERIS_TYPE":"0","RCS_SIZE":"LARGE","MEAN_MOTION_DOT":"-0.00000496","ECCENTRICITY":"0.00012820","TIME_SYSTEM":"UTC","CLASSIFICATION_TYPE":"U","REF_FRAME":"TEME","ELEMENT_SET_NO":"999","APOAPSIS":"548.099","MEAN_ELEMENT_THEORY":"SGP4","TLE_LINE1":"1 47796U 21018K   22348.68345407 -.00000496  00000-0 -14382-4 0  9994","TLE_LINE2":"2 47796  53.0546 133.3672 0001282  53.3072 306.8035 15.06400773 98528","FILE":"3698969"},{"TLE_LINE1":"1 47797U 21018L   22348.71986404  .00000695  00000-0  65591-4 0  9994","APOAPSIS":"548.248","MEAN_ELEMENT_THEORY":"SGP4","FILE":"3699647","TLE_LINE2":"2 47797  53.0510 158.2050 0001471  61.7921 298.3216 15.06394956 98523","ELEMENT_SET_NO":"999","ECCENTRICITY":"0.00014710","MEAN_MOTION_DOT":"0.00000695","RCS_SIZE":"LARGE","REF_FRAME":"TEME","CLASSIFICATION_TYPE":"U","TIME_SYSTEM":"UTC","EPHEMERIS_TYPE":"0","EPOCH":"2022-12-14T17:16:36.253056","NORAD_CAT_ID":"47797","PERIOD":"95.592","MEAN_MOTION_DDOT":"0.0000000000000","SITE":"AFETR","RA_OF_ASC_NODE":"158.2050","CENTER_NAME":"EARTH","OBJECT_TYPE":"PAYLOAD","REV_AT_EPOCH":"9852","BSTAR":"0.00006559100000","MEAN_MOTION":"15.06394956","ARG_OF_PERICENTER":"61.7921","MEAN_ANOMALY":"298.3216","OBJECT_NAME":"STARLINK-2377","LAUNCH_DATE":"2021-03-11","OBJECT_ID":"2021-018L","GP_ID":"220407207","SEMIMAJOR_AXIS":"6925.364","COUNTRY_CODE":"US","DECAY_DATE":null,"INCLINATION":"53.0510","PERIAPSIS":"546.210"}];
